NORAD_CAT_ID,OBJECT_NAME,OBJECT_TYPE,EPOCH,MEAN_MOTION,ECCENTRICITY,INCLINATION,RA_OF_ASC_NODE,ARG_OF_PERICENTER,MEAN_ANOMALY,BSTAR,MEAN_MOTION_DOT,MEAN_MOTION_DDOT,TLE_LINE0,TLE_LINE1,TLE_LINE2,SEMIMAJOR_AXIS,PERIOD,APOGEE,PERIGEE,DECAYED
53964.0,STARLINK-4633,PAYLOAD,2023-11-01 18:42:05,15.08839497,0.0001271,53.2166,120.0749,92.8758,267.238,0.00012706,1.735e-05,0.0,0 STARLINK-4633,1 53964U 22125A   23305.77923428  .00001735  00000-0  12706-3 0  9999,2 53964  53.2166 120.0749 0001271  92.8758 267.2380 15.08839497 59720,6917.882,95.438,540.626,538.868,0.0
53964.0,STARLINK-4633,PAYLOAD,2023-11-01 21:52:52,15.08837318,0.0001174,53.2166,119.4804,87.1429,272.9698,0.0001547,2.175e-05,0.0,0 STARLINK-4633,1 53964U 22125A   23305.91171560  .00002175  00000-0  15470-3 0  9997,2 53964  53.2166 119.4804 0001174  87.1429 272.9698 15.08837318 59677,6917.889,95.438,540.566,538.941,0.0
53964.0,STARLINK-4633,PAYLOAD,2023-11-02 13:46:43,15.08839469,0.0001273,53.2166,116.5069,89.2695,270.8442,4.1476e-05,3.72e-06,0.0,0 STARLINK-4633,1 53964U 22125A   23306.57411724  .00000372  00000-0  41476-4 0  9992,2 53964  53.2166 116.5069 0001273  89.2695 270.8442 15.08839469 59770,6917.882,95.438,540.628,538.866,0.0
53964.0,STARLINK-4633,PAYLOAD,2023-11-02 18:32:53,15.08829492,0.000137,53.2169,115.6151,86.0766,274.0383,0.00027975,4.166e-05,0.0,0 STARLINK-4633,1 53964U 22125A   23306.77283734  .00004166  00000-0  27975-3 0  9994,2 53964  53.2169 115.6151 0001370  86.0766 274.0383 15.08829492 59873,6917.913,95.438,540.725,538.83,0.0
53964.0,STARLINK-4633,PAYLOAD,2023-11-03 13:37:31,15.08836789,0.0001212,53.217,112.0467,85.8817,274.2314,3.8153e-05,3.19e-06,0.0,0 STARLINK-4633,1 53964U 22125A   23307.56772071  .00000319  00000-0  38153-4 0  9996,2 53964  53.2170 112.0467 0001212  85.8817 274.2314 15.08836789 59924,6917.89,95.438,540.594,538.917,0.0
53964.0,STARLINK-4633,PAYLOAD,2023-11-03 19:59:03,15.08840333,0.0001279,53.2175,110.8573,77.8361,282.2774,9.0577e-05,1.154e-05,0.0,0 STARLINK-4633,1 53964U 22125A   23307.83267788  .00001154  00000-0  90577-4 0  9996,2 53964  53.2175 110.8573 0001279  77.8361 282.2774 15.08840333 60034,6917.879,95.438,540.629,538.86,0.0
53964.0,STARLINK-4633,PAYLOAD,2023-11-03 21:34:26,15.08843106,0.000122,53.217,110.5599,87.2445,272.8687,8.7789e-05,1.11e-05,0.0,0 STARLINK-4633,1 53964U 22125A   23307.89891576  .00001110  00000-0  87789-4 0  9993,2 53964  53.2170 110.5599 0001220  87.2445 272.8687 15.08843106 59978,6917.871,95.437,540.58,538.892,0.0
53964.0,STARLINK-4633,PAYLOAD,2023-11-03 23:09:50,15.08815555,0.0001415,53.2173,110.2624,83.367,276.7483,0.00051706,7.945e-05,0.0,0 STARLINK-4633,1 53964U 22125A   23307.96516637  .00007945  00000-0  51706-3 0  9994,2 53964  53.2173 110.2624 0001415  83.3670 276.7483 15.08815555 60055,6917.955,95.439,540.799,538.841,0.0
53964.0,STARLINK-4633,PAYLOAD,2023-11-04 10:17:31,15.0884408,0.0001229,53.217,108.181,88.2296,271.8837,0.00013957,1.934e-05,0.0,0 STARLINK-4633,1 53964U 22125A   23308.42883433  .00001934  00000-0  13957-3 0  9995,2 53964  53.2170 108.1810 0001229  88.2296 271.8837 15.08844080 60128,6917.868,95.437,540.583,538.883,0.0
53964.0,STARLINK-4633,PAYLOAD,2023-11-04 13:28:18,15.08828512,0.0001252,53.2165,107.5863,85.3253,274.7882,-6.5279e-05,-1.326e-05,0.0,0 STARLINK-4633,1 53964U 22125A   23308.56132452 -.00001326  00000-0 -65279-4 0  9990,2 53964  53.2165 107.5863 0001252  85.3253 274.7882 15.08828512 60078,6917.916,95.438,540.647,538.914,0.0
53964.0,STARLINK-4633,PAYLOAD,2023-11-04 18:14:27,15.08839209,0.0001195,53.2171,106.6942,86.3391,273.7738,4.1661e-05,3.75e-06,0.0,0 STARLINK-4633,1 53964U 22125A   23308.76004309  .00000375  00000-0  41661-4 0  9991,2 53964  53.2171 106.6942 0001195  86.3391 273.7738 15.08839209 60178,6917.883,95.438,540.574,538.921,0.0
53964.0,STARLINK-4633,PAYLOAD,2023-11-05 03:46:50,15.08796661,0.0001373,53.2175,104.9094,96.9994,263.1154,-0.0003139,-5.274e-05,0.0,0 STARLINK-4633,1 53964U 22125A   23309.15752651 -.00005274  00000-0 -31390-3 0  9997,2 53964  53.2175 104.9094 0001373  96.9994 263.1154 15.08796661 60231,6918.013,95.44,540.828,538.928,0.0
53964.0,STARLINK-4633,PAYLOAD,2023-11-05 10:08:20,15.0883725,0.0001176,53.2166,103.7209,84.3354,275.7772,0.00029004,4.331e-05,0.0,0 STARLINK-4633,1 53964U 22125A   23309.42245474  .00004331  00000-0  29004-3 0  9997,2 53964  53.2166 103.7209 0001176  84.3354 275.7772 15.08837250 60277,6917.889,95.438,540.567,538.94,0.0
53964.0,STARLINK-4633,PAYLOAD,2023-11-05 14:54:29,15.08842796,0.0001189,53.2166,102.8286,86.1703,273.9425,0.00033171,4.996e-05,0.0,0 STARLINK-4633,1 53964U 22125A   23309.62117210  .00004996  00000-0  33171-3 0  9992,2 53964  53.2166 102.8286 0001189  86.1703 273.9425 15.08842796 60236,6917.872,95.437,540.559,538.914,0.0
53964.0,STARLINK-4633,PAYLOAD,2023-11-05 18:05:15,15.08852886,0.0001366,53.2166,102.234,86.5558,273.559,0.0004365,6.668e-05,0.0,0 STARLINK-4633,1 53964U 22125A   23309.75364760  .00006668  00000-0  43650-3 0  9991,2 53964  53.2166 102.2340 0001366  86.5558 273.5590 15.08852886 60320,6917.841,95.437,540.651,538.761,0.0
53964.0,STARLINK-4633,PAYLOAD,2023-11-06 13:09:51,15.08865092,0.0001131,53.2167,98.6626,111.9069,248.2044,0.00056772,8.765e-05,0.0,0 STARLINK-4633,1 53964U 22125A   23310.54851657  .00008765  00000-0  56772-3 0  9995,2 53964  53.2167  98.6626 0001131 111.9069 248.2044 15.08865092 60377,6917.804,95.436,540.451,538.886,0.0
53964.0,STARLINK-4633,PAYLOAD,2023-11-06 16:20:40,15.08809943,0.0001322,53.2166,98.0701,91.2568,268.8575,-0.00048718,-8.027e-05,0.0,0 STARLINK-4633,1 53964U 22125A   23310.68101963 -.00008027  00000-0 -48718-3 0  9992,2 53964  53.2166  98.0701 0001322  91.2568 268.8575 15.08809943 60460,6917.972,95.439,540.752,538.923,0.0
53964.0,STARLINK-4633,PAYLOAD,2023-11-07 03:28:21,15.08826594,0.0001634,53.2178,95.9896,93.6612,266.4567,-0.00014775,-2.638e-05,0.0,0 STARLINK-4633,1 53964U 22125A   23311.14469709 -.00002638  00000-0 -14775-3 0  9997,2 53964  53.2178  95.9896 0001634  93.6612 266.4567 15.08826594 60530,6917.921,95.438,540.917,538.656,0.0
53964.0,STARLINK-4633,PAYLOAD,2023-11-07 09:49:54,15.08836218,0.0001418,53.2157,94.8009,82.6087,277.5066,-0.00021515,-3.71e-05,0.0,0 STARLINK-4633,1 53964U 22125A   23311.40965311 -.00003710  00000-0 -21515-3 0  9998,2 53964  53.2157  94.8009 0001418  82.6087 277.5066 15.08836218 60570,6917.892,95.438,540.738,538.776,0.0
53964.0,STARLINK-4633,PAYLOAD,2023-11-07 14:36:03,15.08843404,0.0001612,53.217,93.9105,79.6846,280.4328,-6.2197e-05,-1.278e-05,0.0,0 STARLINK-4633,1 53964U 22125A   23311.60837100 -.00001278  00000-0 -62197-4 0  9993,2 53964  53.2170  93.9105 0001612  79.6846 280.4328 15.08843404 60532,6917.87,95.437,540.85,538.62,0.0
53964.0,STARLINK-4633,PAYLOAD,2023-11-07 16:11:26,15.08843989,0.0001564,53.2166,93.6118,87.0828,273.0343,5.4025e-05,5.72e-06,0.0,0 STARLINK-4633,1 53964U 22125A   23311.67461008  .00000572  00000-0  54025-4 0  9995,2 53964  53.2166  93.6118 0001564  87.0828 273.0343 15.08843989 60619,6917.868,95.437,540.815,538.651,0.0
53964.0,STARLINK-4633,PAYLOAD,2023-11-08 14:26:50,15.08850561,0.0001946,53.2176,89.4481,91.4021,268.7194,0.00042001,6.405e-05,0.0,0 STARLINK-4633,1 53964U 22125A   23312.60197043  .00006405  00000-0  42001-3 0  9995,2 53964  53.2176  89.4481 0001946  91.4021 268.7194 15.08850561 60680,6917.848,95.437,541.059,538.367,0.0
53964.0,STARLINK-4633,PAYLOAD,2023-11-09 12:42:13,15.08850091,0.0001866,53.2176,85.2852,99.9032,260.2171,0.00018011,2.58e-05,0.0,0 STARLINK-4633,1 53964U 22125A   23313.52932612  .00002580  00000-0  18011-3 0  9990,2 53964  53.2176  85.2852 0001866  99.9032 260.2171 15.08850091 60895,6917.85,95.437,541.005,538.424,0.0
53964.0,STARLINK-4633,PAYLOAD,2023-11-09 14:17:36,15.08850707,0.0001901,53.2176,84.9878,100.2382,259.8825,0.00018346,2.634e-05,0.0,0 STARLINK-4633,1 53964U 22125A   23313.59556545  .00002634  00000-0  18346-3 0  9995,2 53964  53.2176  84.9878 0001901 100.2382 259.8825 15.08850707 60831,6917.848,95.437,541.028,538.398,0.0
53964.0,STARLINK-4633,PAYLOAD,2023-11-10 12:33:01,15.08835582,0.0001618,53.2173,80.8229,79.0516,281.0658,-0.00010029,-1.884e-05,0.0,0 STARLINK-4633,1 53964U 22125A   23314.52292952 -.00001884  00000-0 -10029-3 0  9996,2 53964  53.2173  80.8229 0001618  79.0516 281.0658 15.08835582 61049,6917.894,95.438,540.878,538.64,0.0
53964.0,STARLINK-4633,PAYLOAD,2023-11-10 14:08:24,15.08838272,0.0001585,53.2168,80.5264,80.0764,280.0407,-6.8881e-05,-1.384e-05,0.0,0 STARLINK-4633,1 53964U 22125A   23314.58916813 -.00001384  00000-0 -68881-4 0  9996,2 53964  53.2168  80.5264 0001585  80.0764 280.0407 15.08838272 60981,6917.886,95.438,540.847,538.654,0.0
53964.0,STARLINK-4633,PAYLOAD,2023-11-10 15:43:47,15.08841565,0.0001497,53.2164,80.2306,87.5486,272.5678,-1.2173e-05,-4.82e-06,0.0,0 STARLINK-4633,1 53964U 22125A   23314.65540625 -.00000482  00000-0 -12173-4 0  9999,2 53964  53.2164  80.2306 0001497  87.5486 272.5678 15.08841565 60992,6917.876,95.437,540.776,538.705,0.0
53964.0,STARLINK-4633,PAYLOAD,2023-11-11 13:59:11,15.08846548,0.0001426,53.2166,76.067,89.8896,270.2259,0.00034247,5.168e-05,0.0,0 STARLINK-4633,1 53964U 22125A   23315.58276782  .00005168  00000-0  34247-3 0  9991,2 53964  53.2166  76.0670 0001426  89.8896 270.2259 15.08846548 61136,6917.86,95.437,540.712,538.739,0.0
53964.0,STARLINK-4633,PAYLOAD,2023-11-11 18:45:20,15.08853274,0.0001419,53.2165,75.1748,90.1788,269.9367,0.00060865,9.415e-05,0.0,0 STARLINK-4633,1 53964U 22125A   23315.78148621  .00009415  00000-0  60865-3 0  9997,2 53964  53.2165  75.1748 0001419  90.1788 269.9367 15.08853274 61238,6917.84,95.437,540.686,538.723,0.0
53964.0,STARLINK-4633,PAYLOAD,2023-11-12 01:06:53,15.08843986,0.0001389,53.2167,73.9847,87.8834,272.2317,0.0002533,3.746e-05,0.0,0 STARLINK-4633,1 53964U 22125A   23316.04644779  .00003746  00000-0  25330-3 0  9991,2 53964  53.2167  73.9847 0001389  87.8834 272.2317 15.08843986 61272,6917.868,95.437,540.694,538.772,0.0
